{
  "type": "FeatureCollection",
  "features": [
    {
      "type": "Feature",
      "properties": {
        "norad_id": 66565,
        "name": "STARLINK-35893",
        "group": "last-30-days",
        "lat": 0.09323823549594122,
        "lon": 153.06360776478598,
        "alt_km": 389.87129696242755,
        "timestamp": "2025-12-07T07:31:35.086462+00:00",
        "meta_object_name": "STARLINK-35893",
        "meta_object_id": "2025-268J",
        "meta_epoch": "2025-12-06T22:00:01.999584",
        "meta_mean_motion": 15.60540366,
        "meta_eccentricity": 0.0001777,
        "meta_inclination": 42.9997,
        "meta_ra_of_asc_node": 155.3178,
        "meta_arg_of_pericenter": 286.7691,
        "meta_mean_anomaly": 2.0731,
        "meta_ephemeris_type": 0,
        "meta_classification_type": "U",
        "meta_norad_cat_id": 66565,
        "meta_element_set_no": 999,
        "meta_rev_at_epoch": 373,
        "meta_bstar": -0.024572177,
        "meta_mean_motion_dot": -0.01849347,
        "meta_mean_motion_ddot": 0,
        "tle_line1": "1 66565U 25268J   25340.91668981 -.01849347  00000+0 -24572-1 0  9991",
        "tle_line2": "2 66565  42.9997 155.3178 0001777 286.7691   2.0731 15.60540366  3733"
      },
      "geometry": {
        "type": "Point",
        "coordinates": [
          153.06360776478598,
          0.09323823549594122
        ]
      }
    },
    {
      "type": "Feature",
      "properties": {
        "norad_id": 66566,
        "name": "STARLINK-35871",
        "group": "last-30-days",
        "lat": 1.4007671102439447,
        "lon": 154.46211439731002,
        "alt_km": 390.12395874628146,
        "timestamp": "2025-12-07T07:31:35.086473+00:00",
        "meta_object_name": "STARLINK-35871",
        "meta_object_id": "2025-268K",
        "meta_epoch": "2025-12-06T22:00:01.999584",
        "meta_mean_motion": 15.60627098,
        "meta_eccentricity": 0.00016725,
        "meta_inclination": 42.9996,
        "meta_ra_of_asc_node": 155.3128,
        "meta_arg_of_pericenter": 272.0572,
        "meta_mean_anomaly": 18.6401,
        "meta_ephemeris_type": 0,
        "meta_classification_type": "U",
        "meta_norad_cat_id": 66566,
        "meta_element_set_no": 999,
        "meta_rev_at_epoch": 373,
        "meta_bstar": -0.025831689,
        "meta_mean_motion_dot": -0.01938587,
        "meta_mean_motion_ddot": 0,
        "tle_line1": "1 66566U 25268K   25340.91668981 -.01938587  00000+0 -25832-1 0  9997",
        "tle_line2": "2 66566  42.9996 155.3128 0001672 272.0572  18.6401 15.60627098  3733"
      },
      "geometry": {
        "type": "Point",
        "coordinates": [
          154.46211439731002,
          1.4007671102439447
        ]
      }
    },
    {
      "type": "Feature",
      "properties": {
        "norad_id": 66567,
        "name": "STARLINK-35825",
        "group": "last-30-days",
        "lat": 2.706816072996787,
        "lon": 155.8619442491072,
        "alt_km": 390.0072689806493,
        "timestamp": "2025-12-07T07:31:35.086484+00:00",
        "meta_object_name": "STARLINK-35825",
        "meta_object_id": "2025-268L",
        "meta_epoch": "2025-12-06T22:00:01.999584",
        "meta_mean_motion": 15.6062891,
        "meta_eccentricity": 0.0001608,
        "meta_inclination": 42.9996,
        "meta_ra_of_asc_node": 155.3081,
        "meta_arg_of_pericenter": 271.35,
        "meta_mean_anomaly": 21.2627,
        "meta_ephemeris_type": 0,
        "meta_classification_type": "U",
        "meta_norad_cat_id": 66567,
        "meta_element_set_no": 999,
        "meta_rev_at_epoch": 373,
        "meta_bstar": -0.025838751,
        "meta_mean_motion_dot": -0.01939128,
        "meta_mean_motion_ddot": 0,
        "tle_line1": "1 66567U 25268L   25340.91668981 -.01939128  00000+0 -25839-1 0  9997",
        "tle_line2": "2 66567  42.9996 155.3081 0001608 271.3500  21.2627 15.60628910  3738"
      },
      "geometry": {
        "type": "Point",
        "coordinates": [
          155.8619442491072,
          2.706816072996787
        ]
      }
    },
    {
      "type": "Feature",
      "properties": {
        "norad_id": 66568,
        "name": "STARLINK-35803",
        "group": "last-30-days",
        "lat": 4.011824221133554,
        "lon": 157.26492057014096,
        "alt_km": 389.9566989963032,
        "timestamp": "2025-12-07T07:31:35.086494+00:00",
        "meta_object_name": "STARLINK-35803",
        "meta_object_id": "2025-268M",
        "meta_epoch": "2025-12-06T22:00:01.999584",
        "meta_mean_motion": 15.60628929,
        "meta_eccentricity": 0.00016641,
        "meta_inclination": 42.9998,
        "meta_ra_of_asc_node": 155.3029,
        "meta_arg_of_pericenter": 268.2744,
        "meta_mean_anomaly": 26.2554,
        "meta_ephemeris_type": 0,
        "meta_classification_type": "U",
        "meta_norad_cat_id": 66568,
        "meta_element_set_no": 999,
        "meta_rev_at_epoch": 373,
        "meta_bstar": -0.025840888,
        "meta_mean_motion_dot": -0.0193931,
        "meta_mean_motion_ddot": 0,
        "tle_line1": "1 66568U 25268M   25340.91668981 -.01939310  00000+0 -25841-1 0  9994",
        "tle_line2": "2 66568  42.9998 155.3029 0001664 268.2744  26.2554 15.60628929  3734"
      },
      "geometry": {
        "type": "Point",
        "coordinates": [
          157.26492057014096,
          4.011824221133554
        ]
      }
    },
    {
      "type": "Feature",
      "properties": {
        "norad_id": 66569,
        "name": "STARLINK-35835",
        "group": "last-30-days",
        "lat": 5.313780485784845,
        "lon": 158.67225536819439,
        "alt_km": 389.7950439704955,
        "timestamp": "2025-12-07T07:31:35.086509+00:00",
        "meta_object_name": "STARLINK-35835",
        "meta_object_id": "2025-268N",
        "meta_epoch": "2025-12-06T22:00:01.999584",
        "meta_mean_motion": 15.60631147,
        "meta_eccentricity": 0.0001638,
        "meta_inclination": 42.9996,
        "meta_ra_of_asc_node": 155.2982,
        "meta_arg_of_pericenter": 269.0603,
        "meta_mean_anomaly": 27.3845,
        "meta_ephemeris_type": 0,
        "meta_classification_type": "U",
        "meta_norad_cat_id": 66569,
        "meta_element_set_no": 999,
        "meta_rev_at_epoch": 373,
        "meta_bstar": -0.025864874,
        "meta_mean_motion_dot": -0.01941024,
        "meta_mean_motion_ddot": 0,
        "tle_line1": "1 66569U 25268N   25340.91668981 -.01941024  00000+0 -25865-1 0  9996",
        "tle_line2": "2 66569  42.9996 155.2982 0001638 269.0603  27.3845 15.60631147  3735"
      },
      "geometry": {
        "type": "Point",
        "coordinates": [
          158.67225536819439,
          5.313780485784845
        ]
      }
    },
    {
      "type": "Feature",
      "properties": {
        "norad_id": 66570,
        "name": "STARLINK-35834",
        "group": "last-30-days",
        "lat": 6.612897930387936,
        "lon": 160.08530192069207,
        "alt_km": 389.5425536469302,
        "timestamp": "2025-12-07T07:31:35.086520+00:00",
        "meta_object_name": "STARLINK-35834",
        "meta_object_id": "2025-268P",
        "meta_epoch": "2025-12-06T22:00:01.999584",
        "meta_mean_motion": 15.60633642,
        "meta_eccentricity": 0.00016129,
        "meta_inclination": 42.9999,
        "meta_ra_of_asc_node": 155.2929,
        "meta_arg_of_pericenter": 273.443,
        "meta_mean_anomaly": 24.9186,
        "meta_ephemeris_type": 0,
        "meta_classification_type": "U",
        "meta_norad_cat_id": 66570,
        "meta_element_set_no": 999,
        "meta_rev_at_epoch": 373,
        "meta_bstar": -0.025927921,
        "meta_mean_motion_dot": -0.01945336,
        "meta_mean_motion_ddot": 0,
        "tle_line1": "1 66570U 25268P   25340.91668981 -.01945336  00000+0 -25928-1 0  9998",
        "tle_line2": "2 66570  42.9999 155.2929 0001612 273.4430  24.9186 15.60633642  3733"
      },
      "geometry": {
        "type": "Point",
        "coordinates": [
          160.08530192069207,
          6.612897930387936
        ]
      }
    },
    {
      "type": "Feature",
      "properties": {
        "norad_id": 66571,
        "name": "STARLINK-35836",
        "group": "last-30-days",
        "lat": 7.908489144227078,
        "lon": 161.50708349271338,
        "alt_km": 389.4471316372974,
        "timestamp": "2025-12-07T07:31:35.086532+00:00",
        "meta_object_name": "STARLINK-35836",
        "meta_object_id": "2025-268Q",
        "meta_epoch": "2025-12-06T22:00:01.999584",
        "meta_mean_motion": 15.60633288,
        "meta_eccentricity": 0.00016723,
        "meta_inclination": 42.9997,
        "meta_ra_of_asc_node": 155.2882,
        "meta_arg_of_pericenter": 271.9193,
        "meta_mean_anomaly": 28.36,
        "meta_ephemeris_type": 0,
        "meta_classification_type": "U",
        "meta_norad_cat_id": 66571,
        "meta_element_set_no": 999,
        "meta_rev_at_epoch": 373,
        "meta_bstar": -0.025929367,
        "meta_mean_motion_dot": -0.01945451,
        "meta_mean_motion_ddot": 0,
        "tle_line1": "1 66571U 25268Q   25340.91668981 -.01945451  00000+0 -25929-1 0  9998",
        "tle_line2": "2 66571  42.9997 155.2882 0001672 271.9193  28.3600 15.60633288  3730"
      },
      "geometry": {
        "type": "Point",
        "coordinates": [
          161.50708349271338,
          7.908489144227078
        ]
      }
    }
  ]
}